[{"OBJECT_NAME":"YAOGAN-36 03A","OBJECT_ID":"2022-160A","EPOCH":"2026-03-09T21:08:19.248576","MEAN_MOTION":15.31468155,"ECCENTRICITY":0.00027649,"INCLINATION":34.9999,"RA_OF_ASC_NODE":237.2222,"ARG_OF_PERICENTER":84.1273,"MEAN_ANOMALY":275.9759,"EPHEMERIS_TYPE":0,"CLASSIFICATION_TYPE":"U","NORAD_CAT_ID":54372,"ELEMENT_SET_NO":999,"REV_AT_EPOCH":18296,"BSTAR":0.00056596392,"MEAN_MOTION_DOT":0.00017652,"MEAN_MOTION_DDOT":0},{"OBJECT_NAME":"STARLINK-35184","OBJECT_ID":"2025-198Q","EPOCH":"2026-03-09T21:07:00.305760","MEAN_MOTION":15.30206003,"ECCENTRICITY":0.00011287,"INCLINATION":53.1599,"RA_OF_ASC_NODE":269.799,"ARG_OF_PERICENTER":71.233,"MEAN_ANOMALY":288.8793,"EPHEMERIS_TYPE":0,"CLASSIFICATION_TYPE":"U","NORAD_CAT_ID":65506,"ELEMENT_SET_NO":999,"REV_AT_EPOCH":2865,"BSTAR":0.0010003717,"MEAN_MOTION_DOT":0.00029392,"MEAN_MOTION_DDOT":0}]
